{
  "type": "FeatureCollection",
  "features": [
    {
      "type": "Feature",
      "properties": {
        "norad_id": 37530,
        "name": "COSMOS 2251 DEB",
        "group": "cosmos-2251-debris",
        "lat": -21.2155254979768,
        "lon": 175.4466305430705,
        "alt_km": 797.1450897390969,
        "timestamp": "2025-12-04T07:39:36.529286+00:00",
        "meta_object_name": "COSMOS 2251 DEB",
        "meta_object_id": "1993-036BNK",
        "meta_epoch": "2025-11-30T19:50:14.646624",
        "meta_mean_motion": 14.34478642,
        "meta_eccentricity": 0.00255427,
        "meta_inclination": 74.0356,
        "meta_ra_of_asc_node": 355.4602,
        "meta_arg_of_pericenter": 61.4891,
        "meta_mean_anomaly": 111.2815,
        "meta_ephemeris_type": 0,
        "meta_classification_type": "U",
        "meta_norad_cat_id": 37530,
        "meta_element_set_no": 999,
        "meta_rev_at_epoch": 85061,
        "meta_bstar": 0.00021143929,
        "meta_mean_motion_dot": 5.72e-06,
        "meta_mean_motion_ddot": 0,
        "tle_line1": "1 37530U 93036BNK 25334.82655841  .00000572  00000+0  21144-3 0  9993",
        "tle_line2": "2 37530  74.0356 355.4602 0025542  61.4891 111.2815 14.34478642850619"
      },
      "geometry": {
        "type": "Point",
        "coordinates": [
          175.4466305430705,
          -21.2155254979768
        ]
      }
    },
    {
      "type": "Feature",
      "properties": {
        "norad_id": 37532,
        "name": "COSMOS 2251 DEB",
        "group": "cosmos-2251-debris",
        "lat": 69.59976339022172,
        "lon": 1.0647747703883452,
        "alt_km": 750.6914404549361,
        "timestamp": "2025-12-04T07:39:36.529295+00:00",
        "meta_object_name": "COSMOS 2251 DEB",
        "meta_object_id": "1993-036BNM",
        "meta_epoch": "2025-12-02T23:37:55.500096",
        "meta_mean_motion": 14.4238225,
        "meta_eccentricity": 0.00156756,
        "meta_inclination": 74.0505,
        "meta_ra_of_asc_node": 233.7976,
        "meta_arg_of_pericenter": 335.7247,
        "meta_mean_anomaly": 40.2834,
        "meta_ephemeris_type": 0,
        "meta_classification_type": "U",
        "meta_norad_cat_id": 37532,
        "meta_element_set_no": 999,
        "meta_rev_at_epoch": 84775,
        "meta_bstar": 0.00031017071,
        "meta_mean_motion_dot": 1e-05,
        "meta_mean_motion_ddot": 0,
        "tle_line1": "1 37532U 93036BNM 25336.98467014  .00001000  00000+0  31017-3 0  9994",
        "tle_line2": "2 37532  74.0505 233.7976 0015675 335.7247  40.2834 14.42382250847758"
      },
      "geometry": {
        "type": "Point",
        "coordinates": [
          1.0647747703883452,
          69.59976339022172
        ]
      }
    },
    {
      "type": "Feature",
      "properties": {
        "norad_id": 37533,
        "name": "COSMOS 2251 DEB",
        "group": "cosmos-2251-debris",
        "lat": 31.074259293471712,
        "lon": -143.44135975592505,
        "alt_km": 918.5647773509481,
        "timestamp": "2025-12-04T07:39:36.529304+00:00",
        "meta_object_name": "COSMOS 2251 DEB",
        "meta_object_id": "1993-036BNN",
        "meta_epoch": "2025-12-03T09:24:05.948064",
        "meta_mean_motion": 14.12090426,
        "meta_eccentricity": 0.01584894,
        "meta_inclination": 74.0692,
        "meta_ra_of_asc_node": 208.2815,
        "meta_arg_of_pericenter": 267.0153,
        "meta_mean_anomaly": 91.2841,
        "meta_ephemeris_type": 0,
        "meta_classification_type": "U",
        "meta_norad_cat_id": 37533,
        "meta_element_set_no": 999,
        "meta_rev_at_epoch": 62789,
        "meta_bstar": 0.0018532151,
        "meta_mean_motion_dot": 3.801e-05,
        "meta_mean_motion_ddot": 0,
        "tle_line1": "1 37533U 93036BNN 25337.39173551  .00003801  00000+0  18532-2 0  9998",
        "tle_line2": "2 37533  74.0692 208.2815 0158489 267.0153  91.2841 14.12090426627892"
      },
      "geometry": {
        "type": "Point",
        "coordinates": [
          -143.44135975592505,
          31.074259293471712
        ]
      }
    },
    {
      "type": "Feature",
      "properties": {
        "norad_id": 37535,
        "name": "COSMOS 2251 DEB",
        "group": "cosmos-2251-debris",
        "lat": -7.955697867358592,
        "lon": 87.24686330904383,
        "alt_km": 712.8623818695078,
        "timestamp": "2025-12-04T07:39:36.529313+00:00",
        "meta_object_name": "COSMOS 2251 DEB",
        "meta_object_id": "1993-036BNQ",
        "meta_epoch": "2025-12-02T18:23:39.005088",
        "meta_mean_motion": 14.5832597,
        "meta_eccentricity": 0.00282789,
        "meta_inclination": 74.0242,
        "meta_ra_of_asc_node": 92.4973,
        "meta_arg_of_pericenter": 232.6434,
        "meta_mean_anomaly": 250.324,
        "meta_ephemeris_type": 0,
        "meta_classification_type": "U",
        "meta_norad_cat_id": 37535,
        "meta_element_set_no": 999,
        "meta_rev_at_epoch": 85179,
        "meta_bstar": 0.0012367848,
        "meta_mean_motion_dot": 5.729e-05,
        "meta_mean_motion_ddot": 0,
        "tle_line1": "1 37535U 93036BNQ 25336.76642367  .00005729  00000+0  12368-2 0  9998",
        "tle_line2": "2 37535  74.0242  92.4973 0028278 232.6434 250.3240 14.58325970851799"
      },
      "geometry": {
        "type": "Point",
        "coordinates": [
          87.24686330904383,
          -7.955697867358592
        ]
      }
    },
    {
      "type": "Feature",
      "properties": {
        "norad_id": 37537,
        "name": "COSMOS 2251 DEB",
        "group": "cosmos-2251-debris",
        "lat": 72.77286752684842,
        "lon": 33.033015407890176,
        "alt_km": 729.6365688285287,
        "timestamp": "2025-12-04T07:39:36.529323+00:00",
        "meta_object_name": "COSMOS 2251 DEB",
        "meta_object_id": "1993-036BNS",
        "meta_epoch": "2025-12-03T02:49:20.436096",
        "meta_mean_motion": 14.37467313,
        "meta_eccentricity": 0.00499683,
        "meta_inclination": 74.0121,
        "meta_ra_of_asc_node": 282.86,
        "meta_arg_of_pericenter": 65.6493,
        "meta_mean_anomaly": 294.9866,
        "meta_ephemeris_type": 0,
        "meta_classification_type": "U",
        "meta_norad_cat_id": 37537,
        "meta_element_set_no": 999,
        "meta_rev_at_epoch": 84895,
        "meta_bstar": 0.00030991104,
        "meta_mean_motion_dot": 9.15e-06,
        "meta_mean_motion_ddot": 0,
        "tle_line1": "1 37537U 93036BNS 25337.11759764  .00000915  00000+0  30991-3 0  9995",
        "tle_line2": "2 37537  74.0121 282.8600 0049968  65.6493 294.9866 14.37467313848954"
      },
      "geometry": {
        "type": "Point",
        "coordinates": [
          33.033015407890176,
          72.77286752684842
        ]
      }
    },
    {
      "type": "Feature",
      "properties": {
        "norad_id": 37546,
        "name": "COSMOS 2251 DEB",
        "group": "cosmos-2251-debris",
        "lat": -38.726922864558134,
        "lon": 101.32658971172734,
        "alt_km": 640.496761448363,
        "timestamp": "2025-12-04T07:39:36.529332+00:00",
        "meta_object_name": "COSMOS 2251 DEB",
        "meta_object_id": "1993-036BPB",
        "meta_epoch": "2025-12-03T09:07:46.153920",
        "meta_mean_motion": 14.79857729,
        "meta_eccentricity": 0.00068233,
        "meta_inclination": 74.0211,
        "meta_ra_of_asc_node": 116.4605,
        "meta_arg_of_pericenter": 143.2532,
        "meta_mean_anomaly": 216.9114,
        "meta_ephemeris_type": 0,
        "meta_classification_type": "U",
        "meta_norad_cat_id": 37546,
        "meta_element_set_no": 999,
        "meta_rev_at_epoch": 65749,
        "meta_bstar": 0.003886367,
        "meta_mean_motion_dot": 0.00029412,
        "meta_mean_motion_ddot": 0,
        "tle_line1": "1 37546U 93036BPB 25337.38039530  .00029412  00000+0  38864-2 0  9995",
        "tle_line2": "2 37546  74.0211 116.4605 0006823 143.2532 216.9114 14.79857729657498"
      },
      "geometry": {
        "type": "Point",
        "coordinates": [
          101.32658971172734,
          -38.726922864558134
        ]
      }
    },
    {
      "type": "Feature",
      "properties": {
        "norad_id": 37959,
        "name": "COSMOS 2251 DEB",
        "group": "cosmos-2251-debris",
        "lat": 69.09373504722797,
        "lon": -155.65264293424946,
        "alt_km": 708.9095323726015,
        "timestamp": "2025-12-04T07:39:36.529341+00:00",
        "meta_object_name": "COSMOS 2251 DEB",
        "meta_object_id": "1993-036BPJ",
        "meta_epoch": "2025-12-03T06:37:43.731840",
        "meta_mean_motion": 14.58029421,
        "meta_eccentricity": 0.0058457,
        "meta_inclination": 74.0113,
        "meta_ra_of_asc_node": 74.9761,
        "meta_arg_of_pericenter": 219.613,
        "meta_mean_anomaly": 172.3716,
        "meta_ephemeris_type": 0,
        "meta_classification_type": "U",
        "meta_norad_cat_id": 37959,
        "meta_element_set_no": 999,
        "meta_rev_at_epoch": 79989,
        "meta_bstar": 0.0012228,
        "meta_mean_motion_dot": 5.729e-05,
        "meta_mean_motion_ddot": 0,
        "tle_line1": "1 37959U 93036BPJ 25337.27620060  .00005729  00000+0  12228-2 0  9996",
        "tle_line2": "2 37959  74.0113  74.9761 0058457 219.6130 172.3716 14.58029421799891"
      },
      "geometry": {
        "type": "Point",
        "coordinates": [
          -155.65264293424946,
          69.09373504722797
        ]
      }
    }
  ]
}